     2.10           N: GPS NAV DATA                         RINEX VERSION / TYPE
teqc  2009Oct19     IGN                 20150619 00:48:08UTCPGM / RUN BY / DATE
    16                                                      LEAP SECONDS
    1.3970D-08  2.2352D-08 -1.1921D-07 -1.1921D-07          ION ALPHA
    1.1059D+05  1.6384D+05 -6.5536D+04 -5.2429D+05          ION BETA
    6.519258022308D-09 9.769962616701D-15   589824     1849 DELTA-UTC: A0,A1,T,W
                                                            END OF HEADER
28 15  6 18 14  0  0.0 4.476741887629D-04 2.614797267597D-12 0.000000000000D+00
    6.500000000000D+01 1.000000000000D+00 4.291250176366D-09-1.522425197978D-03
    1.918524503708D-07 1.954562077299D-02 1.672655344009D-06 5.153696371078D+03
    3.960000000000D+05-2.123415470123D-07 1.949153503850D+00 4.842877388000D-08
    9.887324636701D-01 3.634687500000D+02-1.662199827283D+00-8.584286141403D-09
   -1.046472161195D-10 1.000000000000D+00 1.849000000000D+03 0.000000000000D+00
    2.900000000000D+00 0.000000000000D+00-1.117587089539D-08 6.500000000000D+01
    3.888000000000D+05
31 15  6 18 14  0  0.0 3.125583752990D-04-1.250555214938D-12 0.000000000000D+00
    3.000000000000D+01 1.224687500000D+02 4.116600044344D-09 2.551848075561D+00
    6.530433893204D-06 8.027931675315D-03 9.391456842422D-06 5.153541904449D+03
    3.960000000000D+05 4.470348358154D-08 8.633133368315D-01 2.086162567139D-07
    9.750851671597D-01 2.048437500000D+02-5.258450346192D-01-7.787467236411D-09
    1.317912039184D-10 1.000000000000D+00 1.849000000000D+03 0.000000000000D+00
    2.000000000000D+00 0.000000000000D+00-1.350417733192D-08 3.000000000000D+01
    3.888000000000D+05 4.000000000000D+00
32 15  6 18 14  0  0.0-1.222551800311D-04 9.663381206337D-12 0.000000000000D+00
    2.400000000000D+01 7.281250000000D+00 5.091640658699D-09-3.117730581330D+00
    4.619359970093D-07 1.125308242626D-02 4.960224032402D-06 5.153738655090D+03
    3.960000000000D+05-1.508742570877D-07-1.181807796364D+00-2.980232238770D-08
    9.464766381739D-01 2.766562500000D+02 5.980611283323D-02-8.149982336620D-09
    1.703642392115D-10 1.000000000000D+00 1.849000000000D+03 0.000000000000D+00
    2.000000000000D+00 0.000000000000D+00-3.725290298462D-09 2.400000000000D+01
    3.888000000000D+05 4.000000000000D+00
14 15  6 18 14  0  0.0 5.514640361071D-05-2.728484105319D-12 0.000000000000D+00
    4.800000000000D+01 3.687500000000D+00 4.452685472223D-09-8.834621748314D-01
    3.632158041000D-07 8.242466254160D-03 1.013837754726D-05 5.153608057022D+03
    3.960000000000D+05-4.097819328308D-08-1.398932032049D-01 1.322478055954D-07
    9.667849869096D-01 1.898750000000D+02-1.977705464720D+00-7.893900241202D-09
   -4.810914679621D-10 1.000000000000D+00 1.849000000000D+03 0.000000000000D+00
    2.000000000000D+00 0.000000000000D+00-9.313225746155D-09 4.800000000000D+01
    3.888000000000D+05 4.000000000000D+00
 3 15  6 18 14  0  0.0 3.522676415741D-04 6.821210263297D-12 0.000000000000D+00
    2.500000000000D+01 1.253125000000D+01 4.897346851297D-09-1.079334105112D+00
    7.003545761108D-07 8.667197544128D-04 4.699453711510D-06 5.153654834747D+03
    3.960000000000D+05-1.117587089539D-08-1.263420272880D+00 1.490116119385D-08
    9.587812333611D-01 2.835000000000D+02-2.550168908931D+00-8.226056934004D-09
    2.453673633927D-10 1.000000000000D+00 1.849000000000D+03 0.000000000000D+00
    2.000000000000D+00 0.000000000000D+00 1.862645149231D-09 2.500000000000D+01
    3.888300000000D+05 4.000000000000D+00
29 15  6 18 14  0  0.0 6.173863075674D-04 2.160049916711D-12 0.000000000000D+00
    4.800000000000D+01-1.285625000000D+02 4.011595670490D-09 1.726533762273D+00
   -6.651505827904D-06 1.192017924041D-03 8.037313818932D-06 5.153752885818D+03
    3.960000000000D+05 7.450580596924D-09 2.979545624641D+00 8.009374141693D-08
    9.739349141727D-01 2.298750000000D+02-5.396381138421D-01-7.839612265604D-09
   -3.285851154604D-10 1.000000000000D+00 1.849000000000D+03 0.000000000000D+00
    2.000000000000D+00 0.000000000000D+00-9.778887033463D-09 4.800000000000D+01
    3.888300000000D+05 4.000000000000D+00
24 15  6 18 14  0  0.0 1.173466444016D-07-5.684341886081D-13 0.000000000000D+00
    9.800000000000D+01 1.320625000000D+02 4.527688596404D-09-2.762848831675D+00
    6.712973117828D-06 3.233464085497D-03 8.912757039070D-06 5.153677671432D+03
    3.960000000000D+05-5.215406417847D-08 8.142177227049D-01-7.078051567078D-08
    9.534291724377D-01 2.047187500000D+02 3.610446065914D-01-8.002119034663D-09
    1.367914121971D-10 1.000000000000D+00 1.849000000000D+03 0.000000000000D+00
    2.000000000000D+00 0.000000000000D+00 2.328306436539D-09 9.800000000000D+01
    3.888300000000D+05 4.000000000000D+00
25 15  6 18 14  0  0.0-3.223307430744D-06-4.206412995700D-12 0.000000000000D+00
    3.100000000000D+01 1.909375000000D+01 4.545903640848D-09 1.488778238687D+00
    9.909272193909D-07 4.655818687752D-03 9.946525096893D-07 5.153665170670D+03
    3.960000000000D+05-1.136213541031D-07 1.878221305079D+00 6.519258022308D-08
    9.780404913579D-01 3.706875000000D+02 7.430631779411D-01-8.411421798052D-09
   -2.892977646988D-11 1.000000000000D+00 1.849000000000D+03 0.000000000000D+00
    2.000000000000D+00 0.000000000000D+00 5.587935447693D-09 3.100000000000D+01
    3.888300000000D+05 4.000000000000D+00
22 15  6 18 14  0  0.0 3.622821532190D-04 4.092726157978D-12 0.000000000000D+00
    4.600000000000D+01 1.165625000000D+01 5.825600002396D-09 2.201662875182D-01
    5.997717380524D-07 8.016108768061D-03 4.870817065239D-06 5.153677089691D+03
    3.960000000000D+05-1.452863216400D-07-1.283249925562D+00 1.117587089539D-07
    9.223917020482D-01 2.667500000000D+02-2.042323022952D+00-8.730363987297D-09
    1.946509620154D-10 1.000000000000D+00 1.849000000000D+03 0.000000000000D+00
    2.800000000000D+00 0.000000000000D+00-1.769512891769D-08 4.600000000000D+01
    3.888300000000D+05
26 15  6 18 14  0  0.0 2.846727147698D-05-2.501110429876D-12 0.000000000000D+00
    8.900000000000D+01 2.343750000000D+01 4.929491037586D-09-3.438972420034D-01
    1.303851604462D-06 3.209704300389D-04 5.513429641724D-07 5.153586721420D+03
    3.960000000000D+05-3.539025783539D-08 1.875257820724D+00-7.823109626770D-08
    9.601559404060D-01 3.637187500000D+02 1.246014858320D+00-8.602143886094D-09
   -5.035924108276D-11 1.000000000000D+00 1.849000000000D+03 0.000000000000D+00
    2.000000000000D+00 0.000000000000D+00 7.450580596924D-09 8.900000000000D+01
    3.888300000000D+05
18 15  6 18 14  0  0.0 4.103542305529D-04 2.955857780762D-12 0.000000000000D+00
    8.300000000000D+01 1.125000000000D+01 5.828099780558D-09 6.765299650571D-01
    5.494803190231D-07 1.632174756378D-02 5.021691322327D-06 5.153599142075D+03
    3.960000000000D+05-2.495944499969D-07-1.284380035630D+00-9.313225746155D-09
    9.245751350770D-01 2.649375000000D+02-1.954354183473D+00-8.885369773282D-09
    6.393123530568D-11 1.000000000000D+00 1.849000000000D+03 0.000000000000D+00
    2.000000000000D+00 0.000000000000D+00-1.117587089539D-08 8.300000000000D+01
    3.888300000000D+05
16 15  6 18 14  0  0.0-1.176320947707D-04 3.979039320257D-12 0.000000000000D+00
    6.500000000000D+01 8.156250000000D+00 4.261606179057D-09 9.879954323755D-02
    3.930181264877D-07 8.157785516232D-03 1.056119799614D-06 5.153568593979D+03
    3.960000000000D+05 2.421438694000D-08 1.943824197154D+00 7.450580596924D-08
    9.901137275138D-01 3.701250000000D+02 3.135733186845D-01-8.323561395684D-09
   -1.164334184622D-10 1.000000000000D+00 1.849000000000D+03 0.000000000000D+00
    2.000000000000D+00 0.000000000000D+00-1.024454832077D-08 6.500000000000D+01
    3.888300000000D+05
27 15  6 18 14  0  0.0-1.973938196898D-06 2.728484105319D-12 0.000000000000D+00
    1.790000000000D+02-1.310625000000D+02 4.158744459914D-09-8.077895802041D-01
   -6.871297955513D-06 2.546440809965D-03 6.970018148422D-06 5.153697841644D+03
    3.960000000000D+05 1.545995473862D-07 2.922283561457D+00-3.539025783539D-08
    9.679568428078D-01 2.515625000000D+02 2.521336164343D-01-7.973189219967D-09
   -3.996594999389D-10 1.000000000000D+00 1.849000000000D+03 0.000000000000D+00
    2.800000000000D+00 0.000000000000D+00 1.396983861923D-09 1.790000000000D+02
    3.905100000000D+05
 8 15  6 18 14  0  0.0-2.244249917570D-04-1.591615728100D-12 0.000000000000D+00
    2.100000000000D+01 1.815625000000D+01 5.739524788530D-09 2.498419889100D-01
    1.111999154090D-06 7.776913931590D-03 1.015141606330D-06 5.153714698790D+03
    3.960000000000D+05-4.284083843230D-08 1.898298945780D+00 5.401670932770D-08
    9.828032903420D-01 3.676875000000D+02 8.902776292820D-01-8.464638300450D-09
   -7.357449324440D-11 1.000000000000D+00 1.849000000000D+03 0.000000000000D+00
    2.000000000000D+00 6.300000000000D+01-1.909211277960D-08 2.100000000000D+01
    3.901090000000D+05
23 15  6 18 14  0  0.0-1.156213693320D-04-2.387423592150D-12 0.000000000000D+00
    5.600000000000D+01-1.659375000000D+01 4.821272253910D-09-2.012976167990D+00
   -1.225620508190D-06 1.032136322460D-02 9.361654520030D-06 5.153602916720D+03
    3.960000000000D+05 9.499490261080D-08-2.121408462090D-01-1.322478055950D-07
    9.485714637180D-01 1.914687500000D+02-2.668907520880D+00-7.994975879980D-09
   -3.275136422580D-10 1.000000000000D+00 1.849000000000D+03 0.000000000000D+00
    2.000000000000D+00 0.000000000000D+00-2.002343535420D-08 5.600000000000D+01
    3.905230000000D+05
